[{"OBJECT_NAME":"VIGORIDE-3","OBJECT_ID":"2022-057AE","EPOCH":"2026-03-09T22:06:57.048768","MEAN_MOTION":15.2610122,"ECCENTRICITY":0.00097778,"INCLINATION":97.6431,"RA_OF_ASC_NODE":206.4459,"ARG_OF_PERICENTER":111.2279,"MEAN_ANOMALY":249.0004,"EPHEMERIS_TYPE":0,"CLASSIFICATION_TYPE":"U","NORAD_CAT_ID":52760,"ELEMENT_SET_NO":999,"REV_AT_EPOCH":21001,"BSTAR":0.00033325795,"MEAN_MOTION_DOT":8.532e-5,"MEAN_MOTION_DDOT":0},{"OBJECT_NAME":"STARLINK-35598","OBJECT_ID":"2025-263AA","EPOCH":"2026-03-09T03:53:23.535744","MEAN_MOTION":15.27556739,"ECCENTRICITY":0.00020717,"INCLINATION":43.0038,"RA_OF_ASC_NODE":354.0684,"ARG_OF_PERICENTER":272.3623,"MEAN_ANOMALY":87.6991,"EPHEMERIS_TYPE":0,"CLASSIFICATION_TYPE":"U","NORAD_CAT_ID":66509,"ELEMENT_SET_NO":999,"REV_AT_EPOCH":1881,"BSTAR":0.00090979892,"MEAN_MOTION_DOT":0.00024841,"MEAN_MOTION_DDOT":0}]
